ONEWEB-0228             
1 48780U 21045P   24101.91994558  .00000093  00000+0  21295-3 0  9990
2 48780  87.9008  57.8329 0001821  80.5598 279.5738 13.15550212139506
